OBJECT B                
1 51825U 22019B   24309.79800250  .00040207  00000+0  14435-2 0  9995
2 51825  97.4138  19.8546 0013891 103.6043 256.6744 15.28471104148658
